NORAD_CAT_ID,OBJECT_NAME,OBJECT_TYPE,EPOCH,MEAN_MOTION,ECCENTRICITY,INCLINATION,RA_OF_ASC_NODE,ARG_OF_PERICENTER,MEAN_ANOMALY,BSTAR,MEAN_MOTION_DOT,MEAN_MOTION_DDOT,TLE_LINE0,TLE_LINE1,TLE_LINE2,SEMIMAJOR_AXIS,PERIOD,APOGEE,PERIGEE,DECAYED
52346.0,STARLINK-3812,PAYLOAD,2023-11-24 10:15:25,15.08841557,0.0001807,53.2181,353.2581,104.3985,255.7208,-2.1238e-05,-6.26e-06,0.0,0 STARLINK-3812,1 52346U 22045R   23328.42738166 -.00000626  00000-0 -21238-4 0  9994,2 52346  53.2181 353.2581 0001807 104.3985 255.7208 15.08841557 89533,6917.876,95.437,540.991,538.491,0.0
52346.0,STARLINK-3812,PAYLOAD,2023-11-25 06:55:26,15.088466,0.0001754,53.2177,349.3942,96.7542,263.365,0.00036175,5.475e-05,0.0,0 STARLINK-3812,1 52346U 22045R   23329.28850290  .00005475  00000-0  36175-3 0  9992,2 52346  53.2177 349.3942 0001754  96.7542 263.3650 15.08846600 89663,6917.86,95.437,540.939,538.512,0.0
52346.0,STARLINK-3812,PAYLOAD,2023-11-25 22:49:17,15.08850357,0.0001569,53.2181,346.4258,68.3056,291.8104,0.0003245,4.882e-05,0.0,0 STARLINK-3812,1 52346U 22045R   23329.95090199  .00004882  00000-0  32450-3 0  9993,2 52346  53.2181 346.4258 0001569  68.3056 291.8104 15.08850357 89760,6917.849,95.437,540.799,538.628,0.0
52346.0,STARLINK-3812,PAYLOAD,2023-11-26 09:56:58,15.08870039,0.0001735,53.2174,344.3372,102.9124,257.2062,0.00047864,7.344e-05,0.0,0 STARLINK-3812,1 52346U 22045R   23330.41456707  .00007344  00000-0  47864-3 0  9998,2 52346  53.2174 344.3372 0001735 102.9124 257.2062 15.08870039 89838,6917.789,95.436,540.854,538.453,0.0
52346.0,STARLINK-3812,PAYLOAD,2023-11-26 22:40:05,15.08828797,0.000167,53.2187,341.9633,106.512,253.6056,-0.00039628,-6.587e-05,0.0,0 STARLINK-3812,1 52346U 22045R   23330.94450240 -.00006587  00000-0 -39628-3 0  9991,2 52346  53.2187 341.9633 0001670 106.5120 253.6056 15.08828797 89915,6917.915,95.438,540.935,538.624,0.0
52346.0,STARLINK-3812,PAYLOAD,2023-11-27 09:47:48,15.08807812,0.0001741,53.217,339.8777,99.0654,261.0535,-0.00056908,-9.326e-05,0.0,0 STARLINK-3812,1 52346U 22045R   23331.40819737 -.00009326  00000-0 -56908-3 0  9997,2 52346  53.2170 339.8777 0001741  99.0654 261.0535 15.08807812 89986,6917.979,95.44,541.048,538.639,0.0
52346.0,STARLINK-3812,PAYLOAD,2023-11-27 22:30:53,15.08821658,0.0001714,53.2172,337.5023,78.5677,281.5507,-6.8414e-05,-1.376e-05,0.0,0 STARLINK-3812,1 52346U 22045R   23331.93812213 -.00001376  00000-0 -68414-4 0  9990,2 52346  53.2172 337.5023 0001714  78.5677 281.5507 15.08821658 90065,6917.936,95.439,540.987,538.616,0.0
52346.0,STARLINK-3812,PAYLOAD,2023-11-28 09:38:35,15.08848464,0.0001701,53.217,335.419,101.3581,258.7602,0.00054115,8.337e-05,0.0,0 STARLINK-3812,1 52346U 22045R   23332.40179454  .00008337  00000-0  54115-3 0  9990,2 52346  53.2170 335.4190 0001701 101.3581 258.7602 15.08848464 90134,6917.855,95.437,540.896,538.543,0.0
52346.0,STARLINK-3812,PAYLOAD,2023-11-28 23:57:03,15.08840368,0.0001857,53.2168,332.7411,101.8126,258.3074,0.00061488,9.511e-05,0.0,0 STARLINK-3812,1 52346U 22045R   23332.99796153  .00009511  00000-0  61488-3 0  9991,2 52346  53.2168 332.7411 0001857 101.8126 258.3074 15.08840368 90223,6917.879,95.438,541.029,538.46,0.0
52346.0,STARLINK-3812,PAYLOAD,2023-11-29 09:29:21,15.08864902,0.0001865,53.218,330.9567,98.5354,261.5849,0.00083295,0.00013002,0.0,0 STARLINK-3812,1 52346U 22045R   23333.39539032  .00013002  00000-0  83295-3 0  9997,2 52346  53.2180 330.9567 0001865  98.5354 261.5849 15.08864902 90285,6917.804,95.436,540.959,538.379,0.0
52346.0,STARLINK-3812,PAYLOAD,2023-11-29 22:12:27,15.08846148,0.0001839,53.218,328.5841,84.0898,276.0304,-7.0567e-06,-4e-06,0.0,0 STARLINK-3812,1 52346U 22045R   23333.92531433 -.00000400  00000-0 -70567-5 0  9993,2 52346  53.2180 328.5841 0001839  84.0898 276.0304 15.08846148 90365,6917.862,95.437,540.999,538.454,0.0
52346.0,STARLINK-3812,PAYLOAD,2023-11-30 09:20:08,15.08860552,0.0001928,53.2184,326.5,76.4794,283.6413,0.00030581,4.585e-05,0.0,0 STARLINK-3812,1 52346U 22045R   23334.38898739  .00004585  00000-0  30581-3 0  9995,2 52346  53.2184 326.5000 0001928  76.4794 283.6413 15.08860552 90431,6917.818,95.436,541.016,538.349,0.0
52346.0,STARLINK-3812,PAYLOAD,2023-12-01 04:24:45,15.08860195,0.0001862,53.2173,322.9282,111.3344,248.7847,0.00037882,5.749e-05,0.0,0 STARLINK-3812,1 52346U 22045R   23335.18386565  .00005749  00000-0  37882-3 0  9997,2 52346  53.2173 322.9282 0001862 111.3344 248.7847 15.08860195 90557,6917.819,95.436,540.972,538.396,0.0
52346.0,STARLINK-3812,PAYLOAD,2023-12-01 09:10:55,15.08857543,0.0001685,53.2179,322.0369,95.8028,264.3156,0.00036683,5.558e-05,0.0,0 STARLINK-3812,1 52346U 22045R   23335.38258740  .00005558  00000-0  36683-3 0  9998,2 52346  53.2179 322.0369 0001685  95.8028 264.3156 15.08857543 90581,6917.827,95.436,540.857,538.526,0.0
52346.0,STARLINK-3812,PAYLOAD,2023-12-02 04:15:32,15.08874026,0.0001883,53.2185,318.4638,94.0922,266.0285,0.00028067,4.186e-05,0.0,0 STARLINK-3812,1 52346U 22045R   23336.17745638  .00004186  00000-0  28067-3 0  9996,2 52346  53.2185 318.4638 0001883  94.0922 266.0285 15.08874026 90701,6917.776,95.435,540.944,538.339,0.0
52346.0,STARLINK-3812,PAYLOAD,2023-12-03 04:06:21,15.08813229,0.0001916,53.2182,314.009,96.7539,263.3671,-0.00055913,-9.169e-05,0.0,0 STARLINK-3812,1 52346U 22045R   23337.17108073 -.00009169  00000-0 -55913-3 0  9991,2 52346  53.2182 314.0090 0001916  96.7539 263.3671 15.08813229 90855,6917.962,95.439,541.153,538.502,0.0
52346.0,STARLINK-3812,PAYLOAD,2023-12-04 03:57:09,15.08833772,0.0002089,53.2172,309.5467,110.338,249.7836,1.7965e-05,-2e-08,0.0,0 STARLINK-3812,1 52346U 22045R   23338.16468829 -.00000002  00000-0  17965-4 0  9991,2 52346  53.2172 309.5467 0002089 110.3380 249.7836 15.08833772 91004,6917.899,95.438,541.21,538.319,0.0
52346.0,STARLINK-3812,PAYLOAD,2023-12-04 08:43:18,15.0883522,0.0001959,53.2173,308.6542,96.0531,264.0685,0.00057651,8.898e-05,0.0,0 STARLINK-3812,1 52346U 22045R   23338.36341335  .00008898  00000-0  57651-3 0  9990,2 52346  53.2173 308.6542 0001959  96.0531 264.0685 15.08835220 91037,6917.895,95.438,541.115,538.405,0.0
52346.0,STARLINK-3812,PAYLOAD,2023-12-05 03:47:55,15.08885951,0.000198,53.2169,305.0873,92.002,268.1199,0.0014306,0.00022582,0.0,0 STARLINK-3812,1 52346U 22045R   23339.15828004  .00022582  00000-0  14306-2 0  9996,2 52346  53.2169 305.0873 0001980  92.0020 268.1199 15.08885951 91157,6917.74,95.435,540.975,538.235,0.0
52346.0,STARLINK-3812,PAYLOAD,2023-12-05 06:58:41,15.08891546,0.000201,53.2168,304.4929,88.9917,271.1305,0.0014835,0.00023434,0.0,0 STARLINK-3812,1 52346U 22045R   23339.29075594  .00023434  00000-0  14835-2 0  9993,2 52346  53.2168 304.4929 0002010  88.9917 271.1305 15.08891546 91177,6917.723,95.434,540.978,538.197,0.0
52346.0,STARLINK-3812,PAYLOAD,2023-12-05 21:17:09,15.08861038,0.0002664,53.2159,301.817,86.4556,273.6741,0.00094598,0.00014808,0.0,0 STARLINK-3812,1 52346U 22045R   23339.88691662  .00014808  00000-0  94598-3 0  9998,2 52346  53.2159 301.8170 0002664  86.4556 273.6741 15.08861038 91267,6917.816,95.436,541.524,537.838,0.0
52346.0,STARLINK-3812,PAYLOAD,2023-12-06 03:38:41,15.08860513,0.0002086,53.2169,300.6263,97.2728,262.8501,0.00040957,6.24e-05,0.0,0 STARLINK-3812,1 52346U 22045R   23340.15187245  .00006240  00000-0  40957-3 0  9998,2 52346  53.2169 300.6263 0002086  97.2728 262.8501 15.08860513 91303,6917.818,95.436,541.126,538.24,0.0
52346.0,STARLINK-3812,PAYLOAD,2023-12-06 11:35:37,15.08857465,0.0001833,53.2175,299.1412,117.8399,242.2779,0.00047138,7.225e-05,0.0,0 STARLINK-3812,1 52346U 22045R   23340.48306886  .00007225  00000-0  47138-3 0  9990,2 52346  53.2175 299.1412 0001833 117.8399 242.2779 15.08857465 91356,6917.827,95.436,540.96,538.424,0.0
52346.0,STARLINK-3812,PAYLOAD,2023-12-06 21:07:56,15.08830107,0.000189,53.2176,297.3582,92.0538,268.0671,-3.7784e-05,-8.89e-06,0.0,0 STARLINK-3812,1 52346U 22045R   23340.88051911 -.00000889  00000-0 -37784-4 0  9998,2 52346  53.2176 297.3582 0001890  92.0538 268.0671 15.08830107 91415,6917.911,95.438,541.083,538.468,0.0
52346.0,STARLINK-3812,PAYLOAD,2023-12-07 03:29:29,15.08832491,0.0002001,53.2165,296.1684,87.907,272.2152,0.0006471,0.00010023,0.0,0 STARLINK-3812,1 52346U 22045R   23341.14548228  .00010023  00000-0  64710-3 0  9997,2 52346  53.2165 296.1684 0002001  87.9070 272.2152 15.08832491 91455,6917.903,95.438,541.153,538.384,0.0
52346.0,STARLINK-3812,PAYLOAD,2023-12-08 03:20:16,15.08843052,0.0002144,53.2172,291.7055,110.6159,249.5063,0.00052901,8.142e-05,0.0,0 STARLINK-3812,1 52346U 22045R   23342.13908389  .00008142  00000-0  52901-3 0  9993,2 52346  53.2172 291.7055 0002144 110.6159 249.5063 15.08843052 91606,6917.871,95.437,541.219,538.253,0.0
52346.0,STARLINK-3812,PAYLOAD,2023-12-09 01:35:40,15.08850513,0.0002089,53.2171,287.5422,109.5314,250.5904,0.00041371,6.304e-05,0.0,0 STARLINK-3812,1 52346U 22045R   23343.06644118  .00006304  00000-0  41371-3 0  9990,2 52346  53.2171 287.5422 0002089 109.5314 250.5904 15.08850513 91745,6917.848,95.437,541.158,538.268,0.0
52346.0,STARLINK-3812,PAYLOAD,2023-12-09 20:40:18,15.08843487,0.0001943,53.2166,283.9746,94.7062,265.4152,9.7781e-05,1.269e-05,0.0,0 STARLINK-3812,1 52346U 22045R   23343.86132218  .00001269  00000-0  97781-4 0  9993,2 52346  53.2166 283.9746 0001943  94.7062 265.4152 15.08843487 91866,6917.87,95.437,541.079,538.391,0.0
52346.0,STARLINK-3812,PAYLOAD,2023-12-11 01:17:14,15.08839611,0.0002031,53.2175,278.6223,108.7575,251.3637,4.3773e-05,4.09e-06,0.0,0 STARLINK-3812,1 52346U 22045R   23345.05364339  .00000409  00000-0  43773-4 0  9994,2 52346  53.2175 278.6223 0002031 108.7575 251.3637 15.08839611 92048,6917.882,95.438,541.152,538.342,0.0
52346.0,STARLINK-3812,PAYLOAD,2023-12-12 02:43:25,15.08841414,0.0001713,53.2169,273.8653,87.8138,272.3051,0.00012765,1.744e-05,0.0,0 STARLINK-3812,1 52346U 22045R   23346.11348490  .00001744  00000-0  12765-3 0  9991,2 52346  53.2169 273.8653 0001713  87.8138 272.3051 15.08841414 92208,6917.876,95.437,540.926,538.556,0.0
